MEAN_MOTION;ECCENTRICITY;INCLINATION;RA_OF_ASC_NODE;ARG_OF_PERICENTER;MEAN_ANOMALY;BSTAR;MEAN_MOTION_DOT;MEAN_MOTION_DDOT;TYPE
14.34218244;0.0002533;86.4021;349.5957;76.1548;283.993;1.5069E-5;6.2E-7;0;Iridium
14.34218386;0.000252;86.4021;349.3627;75.9456;284.202;1.8602E-5;7.2E-7;0;Iridium
14.34218386;0.000252;86.4021;349.3627;75.9456;284.202;1.8602E-5;7.2E-7;0;Iridium
14.34218386;0.0002514;86.4021;349.1589;75.8633;284.2842;1.6054E-5;6.5E-7;0;Iridium
14.34218503;0.000251;86.4021;348.955;75.6928;284.4546;1.9484E-5;7.4E-7;0;Iridium
14.34218537;0.0002502;86.4021;348.7221;75.3452;284.8021;1.8559E-5;7.2E-7;0;Iridium
14.34218574;0.0002496;86.402;348.5764;74.9533;285.1939;1.8514E-5;7.2E-7;0;Iridium
14.34218723;0.0002465;86.4019;348.1395;74.4042;285.7425;2.1004E-5;7.9E-7;0;Iridium
14.34218723;0.0002465;86.4019;348.1395;74.4042;285.7425;2.1004E-5;7.9E-7;0;Iridium
14.34218772;0.0002452;86.4019;347.9648;74.2222;285.9244;2.166E-5;8.0E-7;0;Iridium
14.34218772;0.0002452;86.4019;347.9648;74.2222;285.9244;2.166E-5;8.0E-7;0;Iridium
14.34218938;0.0002421;86.4018;347.5279;73.9677;286.1785;2.461E-5;8.9E-7;0;Iridium
14.34218998;0.0002404;86.4017;347.3531;73.8166;286.3294;2.6444E-5;9.4E-7;0;Iridium
14.34219007;0.0002397;86.4017;347.0909;73.6789;286.467;2.4026E-5;8.7E-7;0;Iridium
14.34219097;0.0002383;86.4016;346.9161;73.4674;286.6784;2.6453E-5;9.4E-7;0;Iridium
14.34219111;0.0002382;86.4016;346.8869;73.4127;286.733;2.6743E-5;9.5E-7;0;Iridium
14.34219146;0.0002372;86.4016;346.683;73.2438;286.9018;2.5599E-5;9.1E-7;0;Iridium
14.34219258;0.0002345;86.4015;346.2751;72.7645;287.3807;2.4585E-5;8.9E-7;0;Iridium
14.34219383;0.000235;86.4014;345.9547;72.9544;287.1909;2.5641E-5;9.2E-7;0;Iridium
14.34219404;0.0002346;86.4014;345.9255;72.9236;287.2216;2.6127E-5;9.3E-7;0;Iridium
14.3421944;0.0002353;86.4014;345.8381;72.6706;287.4747;2.6039E-5;9.3E-7;0;Iridium
14.34219454;0.0002347;86.4013;345.5469;71.9844;288.1607;2.0502E-5;7.7E-7;0;Iridium
14.34219538;0.0002333;86.4012;345.3721;72.1193;288.0257;2.1469E-5;8.0E-7;0;Iridium
14.34219674;0.000231;86.4011;345.1099;71.7809;288.3638;2.6285E-5;9.3E-7;0;Iridium
14.34219702;0.0002296;86.4011;344.9643;71.7024;288.4422;2.345E-5;8.5E-7;0;Iridium
14.34219724;0.0002278;86.401;344.7021;71.5289;288.6154;1.8712E-5;7.2E-7;0;Iridium
14.3421978;0.0002262;86.4009;344.5273;71.5159;288.6283;1.8869E-5;7.3E-7;0;Iridium
14.34219824;0.0002243;86.4009;344.2651;71.2395;288.9044;1.6374E-5;6.6E-7;0;Iridium
14.34219848;0.0002234;86.4008;344.1194;71.1511;288.9927;1.5494E-5;6.3E-7;0;Iridium
14.34219831;0.0002221;86.4008;344.0029;71.0357;289.108;1.1677E-5;5.2E-7;0;Iridium
14.34219849;0.0002206;86.4007;343.8281;70.8884;289.2551;1.1458E-5;5.2E-7;0;Iridium
14.34215684;0.0002174;86.4012;343.7701;74.1455;285.998;1.0805E-5;5.0E-7;0;Iridium
14.34215985;0.0002203;86.4007;343.4494;71.7955;288.3481;1.1486E-5;5.2E-7;0;Iridium
14.34215985;0.0002203;86.4007;343.4494;71.7955;288.3481;1.1486E-5;5.2E-7;0;Iridium
14.34215998;0.0002187;86.4007;343.3038;71.7724;288.3709;1.1418E-5;5.2E-7;0;Iridium
14.34215912;0.0002168;86.4006;343.0415;71.3697;288.7734;-1.5657E-6;1.5E-7;0;Iridium
14.3421592;0.0002153;86.4006;342.8667;71.5589;288.5841;-1.5741E-6;1.5E-7;0;Iridium
14.3421606;0.0002136;86.4005;342.6336;71.4151;288.7277;1.1107E-5;5.1E-7;0;Iridium
14.34216108;0.000212;86.4005;342.4587;71.5388;288.6039;1.3336E-5;5.7E-7;0;Iridium
14.34216195;0.00021;86.4003;342.1965;71.3521;288.7902;1.6844E-5;6.7E-7;0;Iridium
14.34216195;0.00021;86.4003;342.1965;71.3521;288.7902;1.6844E-5;6.7E-7;0;Iridium
14.34216256;0.0002083;86.4003;342.0217;71.5237;288.6185;1.8945E-5;7.3E-7;0;Iridium
14.3421633;0.0002064;86.4002;341.7594;71.4547;288.6873;2.0622E-5;7.8E-7;0;Iridium
14.34216421;0.0002049;86.4001;341.6137;71.6331;288.5088;2.5157E-5;9.0E-7;0;Iridium
14.34216424;0.0002037;86.4;341.3514;71.4973;288.6444;2.0874E-5;7.8E-7;0;Iridium
14.34216495;0.0002028;86.4;341.2057;71.6517;288.4899;2.3878E-5;8.7E-7;0;Iridium
14.34216565;0.0002007;86.3998;340.9434;71.5283;288.6131;2.3228E-5;8.5E-7;0;Iridium
14.34216584;0.0002004;86.3998;340.9143;71.5564;288.5849;2.3692E-5;8.6E-7;0;Iridium
14.3421667;0.0001996;86.3998;340.7977;71.8951;288.2462;2.7436E-5;9.7E-7;0;Iridium
14.34216752;0.0001978;86.3996;340.5354;71.8137;288.3274;2.692E-5;9.5E-7;0;Iridium
14.34216851;0.0001959;86.3996;340.3605;72.1084;288.0325;2.9743E-5;1.03E-6;0;Iridium
14.34216871;0.0001955;86.3996;340.3022;72.0565;288.0843;2.8813E-5;1.0E-6;0;Iridium
14.34216976;0.0001931;86.3994;340.0108;72.2265;287.9142;2.6873E-5;9.5E-7;0;Iridium
14.34217062;0.0001915;86.3993;339.8359;72.3703;287.7702;2.8183E-5;9.9E-7;0;Iridium
14.34217062;0.0001915;86.3993;339.8359;72.3703;287.7702;2.8183E-5;9.9E-7;0;Iridium
14.34217173;0.0001901;86.3992;339.6028;72.4662;287.6741;2.8513E-5;1.0E-6;0;Iridium
14.34217231;0.0001882;86.3991;339.3987;72.6409;287.4992;2.6841E-5;9.5E-7;0;Iridium
14.34217231;0.0001882;86.3991;339.3987;72.6409;287.4992;2.6841E-5;9.5E-7;0;Iridium
14.3421734;0.0001846;86.3989;338.9907;73.155;286.9848;2.3434E-5;8.5E-7;0;Iridium
14.34217486;0.0001804;86.3987;338.4368;73.8276;286.3118;2.0865E-5;7.8E-7;0;Iridium
14.34217482;0.0001801;86.3987;338.3494;74.1787;285.9607;1.8839E-5;7.3E-7;0;Iridium
14.34217576;0.0001774;86.3985;337.9703;74.6155;285.5237;1.797E-5;7.0E-7;0;Iridium
14.34217572;0.0001773;86.3985;337.9412;74.6383;285.5009;1.7302E-5;6.8E-7;0;Iridium
14.3421773;0.0001748;86.3983;337.533;75.3818;284.7571;1.9656E-5;7.5E-7;0;Iridium
14.34217901;0.000173;86.3982;337.1248;76.5781;283.5608;2.2662E-5;8.3E-7;0;Iridium
14.34217927;0.0001723;86.3982;337.0081;77.0638;283.075;2.4004E-5;8.7E-7;0;Iridium
14.34217987;0.0001725;86.3981;336.9206;78.0093;282.1296;2.469E-5;8.9E-7;0;Iridium
14.34218106;0.0001721;86.3981;336.6874;78.1504;281.9885;2.6967E-5;9.5E-7;0;Iridium
14.34218201;0.0001704;86.3979;336.3374;78.8531;281.2856;2.7777E-5;9.8E-7;0;Iridium
14.34218176;0.0001708;86.3978;336.1916;78.8674;281.2714;2.5305E-5;9.1E-7;0;Iridium
14.34218273;0.0001693;86.3977;335.8709;79.8792;280.2595;2.4822E-5;8.9E-7;0;Iridium
14.3421839;0.0001677;86.3975;335.4335;81.3369;278.8016;2.4235E-5;8.8E-7;0;Iridium
14.34218508;0.0001665;86.3974;335.0835;81.9282;278.2103;2.4647E-5;8.9E-7;0;Iridium
14.34218535;0.0001662;86.3973;335.0252;82.0053;278.1331;2.4324E-5;8.8E-7;0;Iridium
14.34218671;0.0001648;86.3972;334.646;82.5027;277.6356;2.4005E-5;8.7E-7;0;Iridium
14.34218672;0.0001647;86.3972;334.6169;82.6703;277.4679;2.3185E-5;8.5E-7;0;Iridium
14.34218855;0.0001644;86.397;334.2085;84.589;275.5494;2.4034E-5;8.7E-7;0;Iridium
14.34218865;0.0001642;86.397;334.1794;84.6156;275.5227;2.3993E-5;8.7E-7;0;Iridium
14.3421903;0.0001638;86.3968;333.7711;85.6064;274.5319;2.3362E-5;8.5E-7;0;Iridium
14.34219095;0.0001631;86.3967;333.3919;86.1487;273.9895;1.97E-5;7.5E-7;0;Iridium
14.34219095;0.0001631;86.3967;333.3919;86.1487;273.9895;1.97E-5;7.5E-7;0;Iridium
14.34219095;0.0001631;86.3967;333.3628;86.2704;273.8678;1.9043E-5;7.3E-7;0;Iridium
14.34219124;0.0001627;86.3966;333.1586;87.1949;272.9433;1.7539E-5;6.9E-7;0;Iridium
14.34219225;0.0001617;86.3965;332.7501;87.5611;272.577;1.6758E-5;6.7E-7;0;Iridium
14.34219257;0.0001618;86.3964;332.5751;88.0834;272.0547;1.6401E-5;6.6E-7;0;Iridium
14.34219264;0.0001618;86.3964;332.5168;88.2287;271.9094;1.5808E-5;6.4E-7;0;Iridium
14.34219389;0.0001621;86.3964;332.1084;88.7426;271.3956;1.7207E-5;6.8E-7;0;Iridium
14.34219389;0.0001621;86.3964;332.1084;88.7426;271.3956;1.7207E-5;6.8E-7;0;Iridium
14.34219383;0.0001622;86.3964;332.0793;88.7282;271.41;1.6994E-5;6.7E-7;0;Iridium
14.34219502;0.0001627;86.3963;331.7292;89.5917;270.5465;1.9457E-5;7.4E-7;0;Iridium
14.34219543;0.0001629;86.3962;331.5833;90.0795;270.0588;2.1442E-5;8.0E-7;0;Iridium
14.3421961;0.0001631;86.3962;331.2916;90.6946;269.4436;2.078E-5;7.8E-7;0;Iridium
14.34219709;0.0001641;86.396;330.8539;91.8417;268.2967;2.1485E-5;8.0E-7;0;Iridium
14.34219701;0.0001643;86.396;330.7372;92.2499;267.8885;2.1118E-5;7.9E-7;0;Iridium
14.3421979;0.0001649;86.3959;330.5038;92.5893;267.5491;2.23E-5;8.2E-7;0;Iridium
14.34219809;0.0001651;86.3959;330.4454;92.7275;267.411;2.209E-5;8.2E-7;0;Iridium
14.34219908;0.0001657;86.3957;330.066;93.2946;266.8439;2.2526E-5;8.3E-7;0;Iridium
14.34219908;0.0001657;86.3957;330.066;93.2946;266.8439;2.2526E-5;8.3E-7;0;Iridium
14.34219921;0.0001658;86.3957;330.0077;93.5104;266.6281;2.2375E-5;8.2E-7;0;Iridium
14.34220146;0.0001673;86.3956;329.6575;94.6972;265.4414;2.8246E-5;9.9E-7;0;Iridium
14.34220139;0.0001675;86.3956;329.6283;94.8211;265.3176;2.7083E-5;9.6E-7;0;Iridium
14.34220175;0.0001679;86.3955;329.4824;95.2484;264.8903;2.7408E-5;9.7E-7;0;Iridium
14.34220158;0.0001688;86.3954;329.2489;95.8668;264.272;2.2904E-5;8.4E-7;0;Iridium
14.34218083;0.0001735;86.3952;328.8114;96.3999;263.7394;2.1387E-5;8.0E-7;0;Iridium
14.34218083;0.0001735;86.3952;328.8114;96.3999;263.7394;2.1387E-5;8.0E-7;0;Iridium
14.34218126;0.0001735;86.3952;328.7822;96.4034;263.736;2.7963E-5;9.8E-7;0;Iridium
14.34218126;0.0001735;86.3952;328.7822;96.4034;263.736;2.7963E-5;9.8E-7;0;Iridium
14.34218123;0.0001756;86.3952;328.3445;97.6401;262.4994;1.0067E-5;4.8E-7;0;Iridium
14.34218143;0.0001759;86.3951;328.2277;97.9138;262.2257;1.0656E-5;5.0E-7;0;Iridium
14.34218061;0.0001776;86.3951;327.9942;98.4747;261.665;1.4667E-7;2.0E-7;0;Iridium
14.34218021;0.0001786;86.3951;327.8191;98.9038;261.236;-2.5472E-6;1.3E-7;0;Iridium
14.34217955;0.0001702;86.3951;327.5563;95.1134;265.0256;-2.7657E-6;1.2E-7;0;Iridium
14.34217955;0.0001702;86.3951;327.5563;95.1134;265.0256;-2.7657E-6;1.2E-7;0;Iridium
14.34217937;0.0001704;86.3951;327.498;95.2614;264.8776;-3.7826E-6;9.0E-8;0;Iridium
14.34217858;0.0001724;86.3949;327.1187;95.9829;264.1564;-7.2714E-6;-1.0E-8;0;Iridium
14.34217791;0.0001743;86.3948;326.7101;96.3665;263.7729;-8.6999E-6;-5.0E-8;0;Iridium
14.3421778;0.0001745;86.3948;326.681;96.451;263.6884;-8.9955E-6;-5.0E-8;0;Iridium
14.3421773;0.0001764;86.3946;326.3015;96.8682;263.2714;-9.4939E-6;-7.0E-8;0;Iridium
14.34217662;0.0001779;86.3946;326.1555;97.357;262.7828;-1.1982E-5;-1.4E-7;0;Iridium
